0 SL-16 DEB
1 22474U 92093FP  13282.74059493  .00003245  00000-0  23144-2 0  6086
2 22474 071.3109 237.7271 0186381 046.0748 024.6729 13.90050746 42547
0 SL-16 DEB
1 22474U 92093FP  13283.74850478  .00003744  00000-0  26644-2 0  6092
2 22474 071.3106 235.7273 0186499 044.5563 028.4422 13.90057275 42683
0 SL-16 DEB
1 22474U 92093FP  13285.98756109  .00003076  00000-0  21930-2 0  6110
2 22474 071.3108 231.2844 0186864 041.2063 073.1609 13.90071981 42993
0 SL-16 DEB
1 22474U 92093FP  13286.99720259  .00003571  00000-0  25400-2 0  6126
2 22474 071.3111 229.2808 0186982 039.6962 085.6684 13.90075807 43133
0 SL-16 DEB
1 22474U 92093FP  13287.99862120  .00005021  00000-0  35579-2 0  6132
2 22474 071.3115 227.2937 0187054 038.1983 057.0410 13.90084747 43274
0 SL-16 DEB
1 22474U 92093FP  13289.01156450  .00004370  00000-0  30993-2 0  6141
2 22474 071.3117 225.2838 0187213 036.6854 086.1149 13.90093375 43416
0 SL-16 DEB
1 22474U 92093FP  13290.01410520  .00004116  00000-0  29208-2 0  6150
2 22474 071.3119 223.2952 0187253 035.1831 063.1651 13.90100198 43556
0 SL-16 DEB
1 22474U 92093FP  13291.24965002  .00003768  00000-0  26754-2 0  6162
2 22474 071.3120 220.8434 0187428 033.3455 126.2717 13.90109820 43726
0 SL-16 DEB
1 22474U 92093FP  13292.25561559  .00003891  00000-0  27609-2 0  6171
2 22474 071.3118 218.8471 0187538 031.8507 120.5134 13.90116347 43861
0 SL-16 DEB
1 22474U 92093FP  13293.26328634  .00004535  00000-0  32116-2 0  6184
2 22474 071.3118 216.8476 0187657 030.3437 123.3228 13.90123219 44000
0 SL-16 DEB
1 22474U 92093FP  13294.82768440  .00004446  00000-0  31477-2 0  6191
2 22474 071.3114 213.7434 0187866 028.0283 032.2536 13.90136829 44226
0 SL-16 DEB
1 22474U 92093FP  13296.21295966  .00004350  00000-0  30785-2 0  6201
2 22474 071.3110 210.9946 0188040 025.9846 124.8338 13.90146798 44410
